ATLAS CENTAUR R/B       
1 06155U 72065B   26050.11230212  .00001230  00000+0  17067-3 0  9991
2 06155  35.0019  54.6169 0034178 214.7475 145.0992 14.77629006838518
SL-8 R/B                
1 08459U 75112B   26050.27846763  .00000143  00000+0  55663-4 0  9994
2 08459  74.0595  52.7816 0014956 153.0558 207.1376 14.38193256629228
SL-3 R/B                
1 10114U 77057B   26050.19799715  .00012119  00000+0  25931-3 0  9990
2 10114  97.5742 221.3162 0007224 358.8096   1.3133 15.44932766665470
SEASAT 1                
1 10967U 78064A   26050.02703277  .00000201  00000+0  94813-4 0  9990
2 10967 108.0152  86.3352 0001857 290.9875  69.1072 14.46144824503810
SL-14 R/B               
1 11267U 79011B   26050.27023407  .00000557  00000+0  52405-4 0  9999
2 11267  82.5237 114.0504 0017518 117.0789 243.2221 14.91885276526039
SL-8 R/B                
1 11574U 79089B   26050.29583349  .00000248  00000+0  82993-4 0  9995
2 11574  74.0689 125.0936 0016884 299.6121  60.3353 14.42338958433453
SL-14 R/B               
1 11672U 80005B   26050.27114908  .00000615  00000+0  59708-4 0  9999
2 11672  82.5173 324.7034 0014571 220.8240 139.1888 14.90905990473743
SL-8 R/B                
1 12139U 81003B   26050.18765550  .00013771  00000+0  36165-3 0  9990
2 12139  82.9397 307.1233 0262606 243.0482 114.3709 15.10268661311882
SL-3 R/B                
1 12465U 81046B   26050.22216083  .00011808  00000+0  27902-3 0  9994
2 12465  81.2336 311.9085 0020752  83.4003 276.9601 15.41470981435580
SL-3 R/B                
1 12904U 81103B   26050.22350198  .00004572  00000+0  20386-3 0  9991
2 12904  81.1557 235.0935 0013154 351.6688   8.4322 15.21139203970421
SL-3 R/B                
1 13068U 82013B   26050.30521721  .00005309  00000+0  23135-3 0  9999
2 13068  81.1760 182.3098 0021811 240.6202 119.2852 15.21802900401554
SL-3 R/B                
1 13154U 82039B   26050.23530152  .00002112  00000+0  12735-3 0  9996
2 13154  81.1590 237.2355 0030010  24.7530 335.5127 15.09969539378855
