CCSDS_OMM_VERS = 2.0
CREATION_DATE  = 
ORIGINATOR     = 

OBJECT_NAME    = ATLAS CENTAUR R/B
OBJECT_ID      = 1972-065B
CENTER_NAME    = EARTH
REF_FRAME      = TEME
TIME_SYSTEM    = UTC
MEAN_ELEMENT_THEORY = SGP/SGP4

EPOCH          = 2026-02-19T02:41:42.903168
MEAN_MOTION    = 14.77629006
ECCENTRICITY   = .00341788
INCLINATION    = 35.0019
RA_OF_ASC_NODE = 54.6169
ARG_OF_PERICENTER = 214.7475
MEAN_ANOMALY   = 145.0992

EPHEMERIS_TYPE = 0
CLASSIFICATION_TYPE = U
NORAD_CAT_ID   = 6155
ELEMENT_SET_NO = 999
REV_AT_EPOCH   = 83851
BSTAR          = .17066873E-3
MEAN_MOTION_DOT = .123E-4
MEAN_MOTION_DDOT = 0

CCSDS_OMM_VERS = 2.0
CREATION_DATE  = 
ORIGINATOR     = 

OBJECT_NAME    = SL-8 R/B
OBJECT_ID      = 1975-112B
CENTER_NAME    = EARTH
REF_FRAME      = TEME
TIME_SYSTEM    = UTC
MEAN_ELEMENT_THEORY = SGP/SGP4

EPOCH          = 2026-02-19T06:40:59.603232
MEAN_MOTION    = 14.38193256
ECCENTRICITY   = .00149569
INCLINATION    = 74.0595
RA_OF_ASC_NODE = 52.7816
ARG_OF_PERICENTER = 153.0558
MEAN_ANOMALY   = 207.1376

EPHEMERIS_TYPE = 0
CLASSIFICATION_TYPE = U
NORAD_CAT_ID   = 8459
ELEMENT_SET_NO = 999
REV_AT_EPOCH   = 62922
BSTAR          = .55662979E-4
MEAN_MOTION_DOT = .143E-5
MEAN_MOTION_DDOT = 0

CCSDS_OMM_VERS = 2.0
CREATION_DATE  = 
ORIGINATOR     = 

OBJECT_NAME    = SL-3 R/B
OBJECT_ID      = 1977-057B
CENTER_NAME    = EARTH
REF_FRAME      = TEME
TIME_SYSTEM    = UTC
MEAN_ELEMENT_THEORY = SGP/SGP4

EPOCH          = 2026-02-19T04:45:06.953760
MEAN_MOTION    = 15.44932766
ECCENTRICITY   = .00072242
INCLINATION    = 97.5742
RA_OF_ASC_NODE = 221.3162
ARG_OF_PERICENTER = 358.8096
MEAN_ANOMALY   = 1.3133

EPHEMERIS_TYPE = 0
CLASSIFICATION_TYPE = U
NORAD_CAT_ID   = 10114
ELEMENT_SET_NO = 999
REV_AT_EPOCH   = 66547
BSTAR          = .25931034E-3
MEAN_MOTION_DOT = .12119E-3
MEAN_MOTION_DDOT = 0

CCSDS_OMM_VERS = 2.0
CREATION_DATE  = 
ORIGINATOR     = 

OBJECT_NAME    = SEASAT 1
OBJECT_ID      = 1978-064A
CENTER_NAME    = EARTH
REF_FRAME      = TEME
TIME_SYSTEM    = UTC
MEAN_ELEMENT_THEORY = SGP/SGP4

EPOCH          = 2026-02-19T00:38:55.631328
MEAN_MOTION    = 14.46144824
ECCENTRICITY   = .00018579
INCLINATION    = 108.0152
RA_OF_ASC_NODE = 86.3352
ARG_OF_PERICENTER = 290.9875
MEAN_ANOMALY   = 69.1072

EPHEMERIS_TYPE = 0
CLASSIFICATION_TYPE = U
NORAD_CAT_ID   = 10967
ELEMENT_SET_NO = 999
REV_AT_EPOCH   = 50381
BSTAR          = .94812652E-4
MEAN_MOTION_DOT = .201E-5
MEAN_MOTION_DDOT = 0

CCSDS_OMM_VERS = 2.0
CREATION_DATE  = 
ORIGINATOR     = 

OBJECT_NAME    = SL-14 R/B
OBJECT_ID      = 1979-011B
CENTER_NAME    = EARTH
REF_FRAME      = TEME
TIME_SYSTEM    = UTC
MEAN_ELEMENT_THEORY = SGP/SGP4

EPOCH          = 2026-02-19T06:29:08.223648
MEAN_MOTION    = 14.91885276
ECCENTRICITY   = .00175189
INCLINATION    = 82.5237
RA_OF_ASC_NODE = 114.0504
ARG_OF_PERICENTER = 117.0789
MEAN_ANOMALY   = 243.2221

EPHEMERIS_TYPE = 0
CLASSIFICATION_TYPE = U
NORAD_CAT_ID   = 11267
ELEMENT_SET_NO = 999
REV_AT_EPOCH   = 52603
BSTAR          = .52404508E-4
MEAN_MOTION_DOT = .557E-5
MEAN_MOTION_DDOT = 0

CCSDS_OMM_VERS = 2.0
CREATION_DATE  = 
ORIGINATOR     = 

OBJECT_NAME    = SL-8 R/B
OBJECT_ID      = 1979-089B
CENTER_NAME    = EARTH
REF_FRAME      = TEME
TIME_SYSTEM    = UTC
MEAN_ELEMENT_THEORY = SGP/SGP4

EPOCH          = 2026-02-19T07:06:00.013536
MEAN_MOTION    = 14.42338958
ECCENTRICITY   = .00168849
INCLINATION    = 74.0689
RA_OF_ASC_NODE = 125.0936
ARG_OF_PERICENTER = 299.6121
MEAN_ANOMALY   = 60.3353

EPHEMERIS_TYPE = 0
CLASSIFICATION_TYPE = U
NORAD_CAT_ID   = 11574
ELEMENT_SET_NO = 999
REV_AT_EPOCH   = 43345
BSTAR          = .82992767E-4
MEAN_MOTION_DOT = .248E-5
MEAN_MOTION_DDOT = 0

CCSDS_OMM_VERS = 2.0
CREATION_DATE  = 
ORIGINATOR     = 

OBJECT_NAME    = SL-14 R/B
OBJECT_ID      = 1980-005B
CENTER_NAME    = EARTH
REF_FRAME      = TEME
TIME_SYSTEM    = UTC
MEAN_ELEMENT_THEORY = SGP/SGP4

EPOCH          = 2026-02-19T06:30:27.280512
MEAN_MOTION    = 14.90905990
ECCENTRICITY   = .00145717
INCLINATION    = 82.5173
RA_OF_ASC_NODE = 324.7034
ARG_OF_PERICENTER = 220.8240
MEAN_ANOMALY   = 139.1888

EPHEMERIS_TYPE = 0
CLASSIFICATION_TYPE = U
NORAD_CAT_ID   = 11672
ELEMENT_SET_NO = 999
REV_AT_EPOCH   = 47374
BSTAR          = .59708488E-4
MEAN_MOTION_DOT = .615E-5
MEAN_MOTION_DDOT = 0

CCSDS_OMM_VERS = 2.0
CREATION_DATE  = 
ORIGINATOR     = 

OBJECT_NAME    = SL-8 R/B
OBJECT_ID      = 1981-003B
CENTER_NAME    = EARTH
REF_FRAME      = TEME
TIME_SYSTEM    = UTC
MEAN_ELEMENT_THEORY = SGP/SGP4

EPOCH          = 2026-02-19T04:30:13.435200
MEAN_MOTION    = 15.10268661
ECCENTRICITY   = .02626069
INCLINATION    = 82.9397
RA_OF_ASC_NODE = 307.1233
ARG_OF_PERICENTER = 243.0482
MEAN_ANOMALY   = 114.3709

EPHEMERIS_TYPE = 0
CLASSIFICATION_TYPE = U
NORAD_CAT_ID   = 12139
ELEMENT_SET_NO = 999
REV_AT_EPOCH   = 31188
BSTAR          = .36165388E-3
MEAN_MOTION_DOT = .13771E-3
MEAN_MOTION_DDOT = 0

CCSDS_OMM_VERS = 2.0
CREATION_DATE  = 
ORIGINATOR     = 

OBJECT_NAME    = SL-3 R/B
OBJECT_ID      = 1981-046B
CENTER_NAME    = EARTH
REF_FRAME      = TEME
TIME_SYSTEM    = UTC
MEAN_ELEMENT_THEORY = SGP/SGP4

EPOCH          = 2026-02-19T05:19:54.695712
MEAN_MOTION    = 15.41470981
ECCENTRICITY   = .00207521
INCLINATION    = 81.2336
RA_OF_ASC_NODE = 311.9085
ARG_OF_PERICENTER = 83.4003
MEAN_ANOMALY   = 276.9601

EPHEMERIS_TYPE = 0
CLASSIFICATION_TYPE = U
NORAD_CAT_ID   = 12465
ELEMENT_SET_NO = 999
REV_AT_EPOCH   = 43558
BSTAR          = .27902286E-3
MEAN_MOTION_DOT = .11808E-3
MEAN_MOTION_DDOT = 0

CCSDS_OMM_VERS = 2.0
CREATION_DATE  = 
ORIGINATOR     = 

OBJECT_NAME    = SL-3 R/B
OBJECT_ID      = 1981-103B
CENTER_NAME    = EARTH
REF_FRAME      = TEME
TIME_SYSTEM    = UTC
MEAN_ELEMENT_THEORY = SGP/SGP4

EPOCH          = 2026-02-19T05:21:50.571072
MEAN_MOTION    = 15.21139203
ECCENTRICITY   = .00131548
INCLINATION    = 81.1557
RA_OF_ASC_NODE = 235.0935
ARG_OF_PERICENTER = 351.6688
MEAN_ANOMALY   = 8.4322

EPHEMERIS_TYPE = 0
CLASSIFICATION_TYPE = U
NORAD_CAT_ID   = 12904
ELEMENT_SET_NO = 999
REV_AT_EPOCH   = 97042
BSTAR          = .20386112E-3
MEAN_MOTION_DOT = .4572E-4
MEAN_MOTION_DDOT = 0

CCSDS_OMM_VERS = 2.0
CREATION_DATE  = 
ORIGINATOR     = 

OBJECT_NAME    = SL-3 R/B
OBJECT_ID      = 1982-013B
CENTER_NAME    = EARTH
REF_FRAME      = TEME
TIME_SYSTEM    = UTC
MEAN_ELEMENT_THEORY = SGP/SGP4

EPOCH          = 2026-02-19T07:19:30.766944
MEAN_MOTION    = 15.21802900
ECCENTRICITY   = .0021811
INCLINATION    = 81.1760
RA_OF_ASC_NODE = 182.3098
ARG_OF_PERICENTER = 240.6202
MEAN_ANOMALY   = 119.2852

EPHEMERIS_TYPE = 0
CLASSIFICATION_TYPE = U
NORAD_CAT_ID   = 13068
ELEMENT_SET_NO = 999
REV_AT_EPOCH   = 40155
BSTAR          = .23134772E-3
MEAN_MOTION_DOT = .5309E-4
MEAN_MOTION_DDOT = 0

CCSDS_OMM_VERS = 2.0
CREATION_DATE  = 
ORIGINATOR     = 

OBJECT_NAME    = SL-3 R/B
OBJECT_ID      = 1982-039B
CENTER_NAME    = EARTH
REF_FRAME      = TEME
TIME_SYSTEM    = UTC
MEAN_ELEMENT_THEORY = SGP/SGP4

EPOCH          = 2026-02-19T05:38:50.051328
MEAN_MOTION    = 15.09969539
ECCENTRICITY   = .00300106
INCLINATION    = 81.1590
RA_OF_ASC_NODE = 237.2355
ARG_OF_PERICENTER = 24.7530
MEAN_ANOMALY   = 335.5127

EPHEMERIS_TYPE = 0
CLASSIFICATION_TYPE = U
NORAD_CAT_ID   = 13154
ELEMENT_SET_NO = 999
REV_AT_EPOCH   = 37885
BSTAR          = .12734635E-3
MEAN_MOTION_DOT = .2112E-4
MEAN_MOTION_DDOT = 0

